NORAD_CAT_ID,OBJECT_NAME,OBJECT_TYPE,EPOCH,MEAN_MOTION,ECCENTRICITY,INCLINATION,RA_OF_ASC_NODE,ARG_OF_PERICENTER,MEAN_ANOMALY,BSTAR,MEAN_MOTION_DOT,MEAN_MOTION_DDOT,TLE_LINE0,TLE_LINE1,TLE_LINE2,SEMIMAJOR_AXIS,PERIOD,APOGEE,PERIGEE,DECAYED
49173.0,STARLINK-3045,PAYLOAD,2021-12-13 06:00:00,15.69794751,0.0003481999999999,69.9991,233.1447,265.8764,186.3289,-0.00023785,-0.00028563,0.0,0 STARLINK-3045,1 49173U 21082AV  21347.25001157 -.00028563  00000-0 -23785-3 0  9999,2 49173  69.9991 233.1447 0003482 265.8764 186.3289 15.69794751 14251,6737.621,91.732,361.832,357.14,0.0
49173.0,STARLINK-3045,PAYLOAD,2021-12-13 14:00:01,15.69778855,0.0003437,69.9991,232.2075,258.3063,277.0692,-0.00015758,-0.00019004,0.0,0 STARLINK-3045,1 49173U 21082AV  21347.58334491 -.00019004  00000-0 -15758-3 0  9996,2 49173  69.9991 232.2075 0003437 258.3063 277.0692 15.69778855  3685,6737.667,91.733,361.847,357.216,0.0
49173.0,STARLINK-3045,PAYLOAD,2021-12-13 22:00:00,15.697327800000002,0.0003237,69.9996,231.2704,262.2866,356.2527,3.2782e-05,3.7e-05,0.0,0 STARLINK-3045,1 49173U 21082AV  21347.91667824  .00003700  00000-0  32782-4 0  9993,2 49173  69.9996 231.2704 0003237 262.2866 356.2527 15.69732780  3696,6737.799,91.735,361.845,357.483,0.0
49173.0,STARLINK-3045,PAYLOAD,2021-12-14 06:00:02,15.69760933,0.0003143,69.9994,230.3334,264.8465,76.8591,-0.00023579,-0.00028277,0.0,0 STARLINK-3045,1 49173U 21082AV  21348.25002315 -.00028277  00000-0 -23579-3 0  9990,2 49173  69.9994 230.3334 0003143 264.8465  76.8591 15.69760933 14411,6737.718000000003,91.734,361.701,357.465,0.0
49173.0,STARLINK-3045,PAYLOAD,2021-12-14 14:00:01,15.69748357,0.0003174,70.0,229.4046,259.146,165.3975,-2.3909e-05,-3.065e-05,0.0,0 STARLINK-3045,1 49173U 21082AV  21348.58334491 -.00003065  00000-0 -23909-4 0  9995,2 49173  70.0000 229.4046 0003174 259.1460 165.3975 15.69748357 14468,6737.754,91.734,361.758,357.48,0.0
49173.0,STARLINK-3045,PAYLOAD,2021-12-14 22:00:00,15.69746853,0.0003093,70.0001,228.4677,269.2412,238.429,-1.4634e-06,-3.87e-06,0.0,0 STARLINK-3045,1 49173U 21082AV  21348.91667824 -.00000387  00000-0 -14634-5 0  9991,2 49173  70.0001 228.4677 0003093 269.2412 238.4290 15.69746853  3691,6737.7580000000025,91.735,361.707,357.539,0.0
49173.0,STARLINK-3045,PAYLOAD,2021-12-15 06:00:00,15.6982059,0.0003271,69.9991,227.5229,264.0553,326.9887,-0.0012200999999999,-0.00143817,0.0,0 STARLINK-3045,1 49173U 21082AV  21349.25001157 -.00143817  00000-0 -12201-2 0  9991,2 49173  69.9991 227.5229 0003271 264.0553 326.9887 15.69820590 14571,6737.547,91.73,361.616,357.208,0.0
49173.0,STARLINK-3045,PAYLOAD,2021-12-15 12:00:00,15.69694607,0.0003483,69.9993,226.82,259.3185,304.1137,0.0005145,0.0006152,0.0,0 STARLINK-3045,1 49173U 21082AV  21349.50001157  .00061520  00000-0  51450-3 0  9997,2 49173  69.9993 226.8200 0003483 259.3185 304.1137 15.69694607 14616,6737.908,91.738,362.12,357.426,0.0
49173.0,STARLINK-3045,PAYLOAD,2021-12-15 14:22:36,15.69699163,0.0003458,69.9992,226.5418,257.9893,144.8105,0.0005683,0.00068041,0.0,0 STARLINK-3045,1 49173U 21082AV  21349.59902778  .00068041  00000-0  56830-3 0  9997,2 49173  69.9992 226.5418 0003458 257.9893 144.8105 15.69699163  3697,6737.895,91.737,362.09,357.43,0.0
49173.0,STARLINK-3045,PAYLOAD,2021-12-15 22:00:01,15.6974054,0.0003423,69.9993,225.6489,262.5268,134.8438,6.9127e-05,8.045e-05,0.0,0 STARLINK-3045,1 49173U 21082AV  21349.91668981  .00008045  00000-0  69127-4 0  9990,2 49173  69.9993 225.6489 0003423 262.5268 134.8438 15.69740540  3689,6737.776,91.735,361.948,357.335,0.0
49173.0,STARLINK-3045,PAYLOAD,2021-12-16 06:00:00,15.69722531,0.0003523999999999,69.9996,224.7161,262.6803,217.7694,-0.0029669,-0.00340071,0.0,0 STARLINK-3045,1 49173U 21082AV  21350.25001157 -.00340071  00000-0 -29669-2 0  9990,2 49173  69.9996 224.7161 0003524 262.6803 217.7694 15.69722531 14729,6737.828,91.736,362.067,357.3180000000001,0.0
49173.0,STARLINK-3045,PAYLOAD,2021-12-16 14:00:01,15.69709382,0.0003568,69.9993,223.7752,258.5691,305.0033,0.0003235,0.00038521,0.0,0 STARLINK-3045,1 49173U 21082AV  21350.58334491  .00038521  00000-0  32350-3 0  9990,2 49173  69.9993 223.7752 0003568 258.5691 305.0033 15.69709382  3677,6737.866,91.737,362.135,357.326,0.0
49173.0,STARLINK-3045,PAYLOAD,2021-12-16 22:00:01,15.69727881,0.0003604,69.9993,222.8384,263.4534,23.2884,0.00013932,0.00016438,0.0,0 STARLINK-3045,1 49173U 21082AV  21350.91668981  .00016438  00000-0  13932-3 0  9999,2 49173  69.9993 222.8384 0003604 263.4534  23.2884 15.69727881  3677,6737.813,91.736,362.106,357.249,0.0
49173.0,STARLINK-3045,PAYLOAD,2021-12-17 01:22:15,15.69741691,0.0003453,69.9989,222.4435,260.7616,99.3189,-1.2953e-05,-1.758e-05,0.0,0 STARLINK-3045,1 49173U 21082AV  21351.05712094 -.00001758  00000-0 -12953-4 0  9994,2 49173  69.9989 222.4435 0003453 260.7616  99.3189 15.69741691 14857,6737.773,91.735,361.965,357.31199999999984,0.0
49173.0,STARLINK-3045,PAYLOAD,2021-12-17 22:00:00,15.69713228,0.0003395,69.9987,220.0275,263.0609,272.9855,1.4302e-06,-4.2e-07,0.0,0 STARLINK-3045,1 49173U 21082AV  21351.91667824 -.00000042  00000-0  14302-5 0  9994,2 49173  69.9987 220.0275 0003395 263.0609 272.9855 15.69713228  3698,6737.855,91.737,362.007,357.432,0.0
49173.0,STARLINK-3045,PAYLOAD,2021-12-18 06:00:00,15.69749201,0.0003253,69.9985,219.0905,262.8913,356.235,-0.00031295,-0.00037404,0.0,0 STARLINK-3045,1 49173U 21082AV  21352.25001157 -.00037404  00000-0 -31295-3 0  9994,2 49173  69.9985 219.0905 0003253 262.8913 356.2350 15.69749201 15039,6737.752,91.734,361.8080000000001,357.425,0.0
49173.0,STARLINK-3045,PAYLOAD,2021-12-18 14:00:01,15.6972027,0.000331,69.9988,218.1538,257.0637,85.171,0.00058224,0.00069789,0.0,0 STARLINK-3045,1 49173U 21082AV  21352.58334491  .00069789  00000-0  58224-3 0  9990,2 49173  69.9988 218.1538 0003310 257.0637  85.1710 15.69720270  3699,6737.834,91.736,361.93,357.469,0.0
49173.0,STARLINK-3045,PAYLOAD,2021-12-18 21:43:22,15.69758556,0.0003373,69.9984,217.249,260.958,99.1234,0.00023905,0.00028432,0.0,0 STARLINK-3045,1 49173U 21082AV  21352.90512154  .00028432  00000-0  23905-3 0  9998,2 49173  69.9984 217.2490 0003373 260.9580  99.1234 15.69758556 15148,6737.725,91.734,361.862,357.31699999999995,0.0
49173.0,STARLINK-3045,PAYLOAD,2021-12-18 22:00:00,15.69755623,0.0003337,69.9988,217.217,262.5296,162.8311,0.00016049,0.00018995,0.0,0 STARLINK-3045,1 49173U 21082AV  21352.91667824  .00018995  00000-0  16049-3 0  9998,2 49173  69.9988 217.2170 0003337 262.5296 162.8311 15.69755623 15145,6737.733,91.734,361.847,357.35,0.0
49173.0,STARLINK-3045,PAYLOAD,2021-12-19 14:00:01,15.69727502,0.0003697,69.9983,215.3429,257.147,334.5294,0.00051053,0.00061127,0.0,0 STARLINK-3045,1 49173U 21082AV  21353.58334491  .00061127  00000-0  51053-3 0  9992,2 49173  69.9983 215.3429 0003697 257.1470 334.5294 15.69727502  3677,6737.814,91.736,362.17,357.18800000000016,0.0
49173.0,STARLINK-3045,PAYLOAD,2021-12-19 22:00:00,15.69740851,0.000356,69.9981,214.406,263.0844,51.7147,0.00028169,0.00033539,0.0,0 STARLINK-3045,1 49173U 21082AV  21353.91667824  .00033539  00000-0  28169-3 0  9996,2 49173  69.9981 214.4060 0003560 263.0844  51.7147 15.69740851 15294,6737.775,91.735,362.039,357.242,0.0
49173.0,STARLINK-3045,PAYLOAD,2021-12-20 14:00:01,15.69740918,0.0003336,69.9984,212.532,256.2237,224.8872,0.00063271,0.00075979,0.0,0 STARLINK-3045,1 49173U 21082AV  21354.58334491  .00075979  00000-0  63271-3 0  9998,2 49173  69.9984 212.5320 0003336 256.2237 224.8872 15.69740918  3699,6737.775,91.735,361.888,357.39300000000014,0.0
49173.0,STARLINK-3045,PAYLOAD,2021-12-20 22:00:01,15.69793848,0.0003404,69.9984,211.5951,263.0575,301.2646,-0.00049922,-0.00059497,0.0,0 STARLINK-3045,1 49173U 21082AV  21354.91668981 -.00059497  00000-0 -49922-3 0  9995,2 49173  69.9984 211.5951 0003404 263.0575 301.2646 15.69793848 15451,6737.624,91.732,361.782,357.195,0.0
49173.0,STARLINK-3045,PAYLOAD,2021-12-21 14:00:01,15.69686046,0.0003385,69.9981,209.7211,256.3314,114.1655,0.00043733,0.00052183,0.0,0 STARLINK-3045,1 49173U 21082AV  21355.58334491  .00052183  00000-0  43733-3 0  9992,2 49173  69.9981 209.7211 0003385 256.3314 114.1655 15.69686046  3662,6737.932,91.738,362.078,357.517,0.0
49173.0,STARLINK-3045,PAYLOAD,2021-12-21 22:00:00,15.69700239,0.0003305,69.9979,208.7842,262.6781,190.8985,0.00037904,0.00045188,0.0,0 STARLINK-3045,1 49173U 21082AV  21355.91667824  .00045188  00000-0  37904-3 0  9998,2 49173  69.9979 208.7842 0003305 262.6781 190.8985 15.69700239 15614,6737.892,91.737,361.984,357.53,0.0
49173.0,STARLINK-3045,PAYLOAD,2021-12-22 14:00:01,15.69722484,0.0003536,69.9982,206.9101,257.1193,2.6783,0.00019498,0.00023103,0.0,0 STARLINK-3045,1 49173U 21082AV  21356.58334491  .00023103  00000-0  19498-3 0  9994,2 49173  69.9982 206.9101 0003536 257.1193   2.6783 15.69722484 15711,6737.828,91.736,362.076,357.311,0.0
49173.0,STARLINK-3045,PAYLOAD,2021-12-22 22:00:00,15.69749642,0.0003294,70.0001,205.9812,265.0131,77.6795,-4.0318e-05,-5.022e-05,0.0,0 STARLINK-3045,1 49173U 21082AV  21356.91667824 -.00005022  00000-0 -40318-4 0  9998,2 49173  70.0001 205.9812 0003294 265.0131  77.6795 15.69749642 15760,6737.75,91.734,361.835,357.396,0.0
49173.0,STARLINK-3045,PAYLOAD,2021-12-23 06:00:00,15.69768325,0.0003531,69.9979,205.0361,261.3419,164.71099999999996,-0.00011685,-0.00014149,0.0,0 STARLINK-3045,1 49173U 21082AV  21357.25001157 -.00014149  00000-0 -11685-3 0  9991,2 49173  69.9979 205.0361 0003531 261.3419 164.7110 15.69768325 15828,6737.696999999999,91.733,361.941,357.18300000000005,0.0
49173.0,STARLINK-3045,PAYLOAD,2021-12-23 14:00:01,15.69803848,0.0003462,69.9983,204.0993,256.6979,252.487,-0.0006322,-0.00075181,0.0,0 STARLINK-3045,1 49173U 21082AV  21357.58334491 -.00075181  00000-0 -63220-3 0  9992,2 49173  69.9983 204.0993 0003462 256.6979 252.4870 15.69803848  3672,6737.595,91.731,361.793,357.12800000000016,0.0
